[{"OBJECT_NAME":"EUTELSAT 139 WEST A","OBJECT_ID":"2004-008A","EPOCH":"2026-03-03T19:01:39.806112","MEAN_MOTION":1.00833401,"ECCENTRICITY":0.0001093,"INCLINATION":5.5616,"RA_OF_ASC_NODE":73.273,"ARG_OF_PERICENTER":39.906,"MEAN_ANOMALY":295.1791,"EPHEMERIS_TYPE":0,"CLASSIFICATION_TYPE":"U","NORAD_CAT_ID":28187,"ELEMENT_SET_NO":999,"REV_AT_EPOCH":8029,"BSTAR":0,"MEAN_MOTION_DOT":-1.98e-6,"MEAN_MOTION_DDOT":0},{"OBJECT_NAME":"EUTELSAT 174A","OBJECT_ID":"2005-052A","EPOCH":"2026-03-03T18:19:28.848576","MEAN_MOTION":1.00273531,"ECCENTRICITY":0.0006272,"INCLINATION":3.9517,"RA_OF_ASC_NODE":77.8364,"ARG_OF_PERICENTER":267.8762,"MEAN_ANOMALY":264.647,"EPHEMERIS_TYPE":0,"CLASSIFICATION_TYPE":"U","NORAD_CAT_ID":28924,"ELEMENT_SET_NO":999,"REV_AT_EPOCH":5127,"BSTAR":0,"MEAN_MOTION_DOT":-3.0e-8,"MEAN_MOTION_DDOT":0},{"OBJECT_NAME":"EUTELSAT 33F","OBJECT_ID":"2006-032A","EPOCH":"2026-03-03T14:13:59.873376","MEAN_MOTION":1.00275571,"ECCENTRICITY":0.0003569,"INCLINATION":1.389,"RA_OF_ASC_NODE":83.4858,"ARG_OF_PERICENTER":263.984,"MEAN_ANOMALY":60.4943,"EPHEMERIS_TYPE":0,"CLASSIFICATION_TYPE":"U","NORAD_CAT_ID":29270,"ELEMENT_SET_NO":999,"REV_AT_EPOCH":4624,"BSTAR":0,"MEAN_MOTION_DOT":1.42e-6,"MEAN_MOTION_DDOT":0},{"OBJECT_NAME":"EUTELSAT HOTBIRD 13C","OBJECT_ID":"2008-065A","EPOCH":"2026-03-03T18:58:17.628384","MEAN_MOTION":1.00269185,"ECCENTRICITY":0.0003844,"INCLINATION":2.6797,"RA_OF_ASC_NODE":80.455,"ARG_OF_PERICENTER":274.0557,"MEAN_ANOMALY":41.2793,"EPHEMERIS_TYPE":0,"CLASSIFICATION_TYPE":"U","NORAD_CAT_ID":33459,"ELEMENT_SET_NO":999,"REV_AT_EPOCH":4628,"BSTAR":0,"MEAN_MOTION_DOT":-2.95e-6,"MEAN_MOTION_DDOT":0},{"OBJECT_NAME":"EUTELSAT 36B","OBJECT_ID":"2009-065A","EPOCH":"2026-03-03T16:01:42.050784","MEAN_MOTION":1.00271356,"ECCENTRICITY":0.0005885,"INCLINATION":0.2251,"RA_OF_ASC_NODE":77.5321,"ARG_OF_PERICENTER":266.5368,"MEAN_ANOMALY":108.248,"EPHEMERIS_TYPE":0,"CLASSIFICATION_TYPE":"U","NORAD_CAT_ID":36101,"ELEMENT_SET_NO":999,"REV_AT_EPOCH":5965,"BSTAR":0,"MEAN_MOTION_DOT":9.8e-7,"MEAN_MOTION_DDOT":0},{"OBJECT_NAME":"EUTELSAT KA-SAT 9A","OBJECT_ID":"2010-069A","EPOCH":"2026-03-03T15:49:50.687616","MEAN_MOTION":1.00273871,"ECCENTRICITY":0.0002672,"INCLINATION":0.0566,"RA_OF_ASC_NODE":356.6489,"ARG_OF_PERICENTER":142.8249,"MEAN_ANOMALY":268.402,"EPHEMERIS_TYPE":0,"CLASSIFICATION_TYPE":"U","NORAD_CAT_ID":37258,"ELEMENT_SET_NO":999,"REV_AT_EPOCH":4294,"BSTAR":0,"MEAN_MOTION_DOT":4.8e-7,"MEAN_MOTION_DDOT":0},{"OBJECT_NAME":"EUTELSAT 7 WEST A","OBJECT_ID":"2011-051A","EPOCH":"2026-03-03T19:10:31.457280","MEAN_MOTION":1.00271744,"ECCENTRICITY":0.0001293,"INCLINATION":0.0686,"RA_OF_ASC_NODE":6.9958,"ARG_OF_PERICENTER":236.9507,"MEAN_ANOMALY":197.9126,"EPHEMERIS_TYPE":0,"CLASSIFICATION_TYPE":"U","NORAD_CAT_ID":37816,"ELEMENT_SET_NO":999,"REV_AT_EPOCH":5282,"BSTAR":0,"MEAN_MOTION_DOT":-7.4e-7,"MEAN_MOTION_DDOT":0},{"OBJECT_NAME":"EUTELSAT 16A","OBJECT_ID":"2011-057A","EPOCH":"2026-03-03T19:17:08.321856","MEAN_MOTION":1.00271354,"ECCENTRICITY":0.0005467,"INCLINATION":0.059,"RA_OF_ASC_NODE":350.7218,"ARG_OF_PERICENTER":353.622,"MEAN_ANOMALY":122.4842,"EPHEMERIS_TYPE":0,"CLASSIFICATION_TYPE":"U","NORAD_CAT_ID":37836,"ELEMENT_SET_NO":999,"REV_AT_EPOCH":628,"BSTAR":0,"MEAN_MOTION_DOT":9.0e-7,"MEAN_MOTION_DDOT":0},{"OBJECT_NAME":"EUTELSAT 21B","OBJECT_ID":"2012-062B","EPOCH":"2026-03-03T14:10:45.183936","MEAN_MOTION":1.00271226,"ECCENTRICITY":0.0002849,"INCLINATION":0.068,"RA_OF_ASC_NODE":355.9729,"ARG_OF_PERICENTER":342.7889,"MEAN_ANOMALY":56.8553,"EPHEMERIS_TYPE":0,"CLASSIFICATION_TYPE":"U","NORAD_CAT_ID":38992,"ELEMENT_SET_NO":999,"REV_AT_EPOCH":4876,"BSTAR":0,"MEAN_MOTION_DOT":1.15e-6,"MEAN_MOTION_DDOT":0},{"OBJECT_NAME":"EUTELSAT 70B","OBJECT_ID":"2012-069A","EPOCH":"2026-03-03T18:25:16.483296","MEAN_MOTION":1.00273436,"ECCENTRICITY":0.0001993,"INCLINATION":0.0665,"RA_OF_ASC_NODE":337.4352,"ARG_OF_PERICENTER":340.6778,"MEAN_ANOMALY":190.2296,"EPHEMERIS_TYPE":0,"CLASSIFICATION_TYPE":"U","NORAD_CAT_ID":39020,"ELEMENT_SET_NO":999,"REV_AT_EPOCH":4845,"BSTAR":0,"MEAN_MOTION_DOT":-5.7e-7,"MEAN_MOTION_DDOT":0},{"OBJECT_NAME":"EUTELSAT 117 WEST A","OBJECT_ID":"2013-012A","EPOCH":"2026-03-03T15:13:54.132384","MEAN_MOTION":1.00272977,"ECCENTRICITY":0.0003068,"INCLINATION":0.0553,"RA_OF_ASC_NODE":291.4978,"ARG_OF_PERICENTER":58.3171,"MEAN_ANOMALY":283.25,"EPHEMERIS_TYPE":0,"CLASSIFICATION_TYPE":"U","NORAD_CAT_ID":39122,"ELEMENT_SET_NO":999,"REV_AT_EPOCH":4737,"BSTAR":0,"MEAN_MOTION_DOT":-2.7e-7,"MEAN_MOTION_DDOT":0},{"OBJECT_NAME":"EUTELSAT 7B","OBJECT_ID":"2013-022A","EPOCH":"2026-03-03T19:14:38.561280","MEAN_MOTION":1.0027209,"ECCENTRICITY":0.0006313,"INCLINATION":0.0689,"RA_OF_ASC_NODE":349.6146,"ARG_OF_PERICENTER":3.3419,"MEAN_ANOMALY":104.2348,"EPHEMERIS_TYPE":0,"CLASSIFICATION_TYPE":"U","NORAD_CAT_ID":39163,"ELEMENT_SET_NO":999,"REV_AT_EPOCH":4689,"BSTAR":0,"MEAN_MOTION_DOT":3.4e-7,"MEAN_MOTION_DDOT":0},{"OBJECT_NAME":"EXPRESS-AT1","OBJECT_ID":"2014-010A","EPOCH":"2026-03-03T04:10:26.535072","MEAN_MOTION":1.00286556,"ECCENTRICITY":4.628e-5,"INCLINATION":0.0182,"RA_OF_ASC_NODE":234.3603,"ARG_OF_PERICENTER":182.8711,"MEAN_ANOMALY":222.3054,"EPHEMERIS_TYPE":0,"CLASSIFICATION_TYPE":"U","NORAD_CAT_ID":39612,"ELEMENT_SET_NO":999,"REV_AT_EPOCH":4375,"BSTAR":0,"MEAN_MOTION_DOT":6.1e-7,"MEAN_MOTION_DDOT":0},{"OBJECT_NAME":"EXPRESS-AT2","OBJECT_ID":"2014-010B","EPOCH":"2026-03-03T19:52:32.717280","MEAN_MOTION":1.00270363,"ECCENTRICITY":0.0001171,"INCLINATION":0.0217,"RA_OF_ASC_NODE":159.8822,"ARG_OF_PERICENTER":109.665,"MEAN_ANOMALY":330.0401,"EPHEMERIS_TYPE":0,"CLASSIFICATION_TYPE":"U","NORAD_CAT_ID":39613,"ELEMENT_SET_NO":999,"REV_AT_EPOCH":4344,"BSTAR":0,"MEAN_MOTION_DOT":0,"MEAN_MOTION_DDOT":0},{"OBJECT_NAME":"EUTELSAT 3B","OBJECT_ID":"2014-030A","EPOCH":"2026-03-03T19:13:31.169280","MEAN_MOTION":1.00273864,"ECCENTRICITY":0.0001148,"INCLINATION":0.0656,"RA_OF_ASC_NODE":335.0159,"ARG_OF_PERICENTER":286.9001,"MEAN_ANOMALY":191.1148,"EPHEMERIS_TYPE":0,"CLASSIFICATION_TYPE":"U","NORAD_CAT_ID":39773,"ELEMENT_SET_NO":999,"REV_AT_EPOCH":4301,"BSTAR":0,"MEAN_MOTION_DOT":6.0e-8,"MEAN_MOTION_DDOT":0},{"OBJECT_NAME":"EUTELSAT 115 WEST B","OBJECT_ID":"2015-010B","EPOCH":"2026-03-03T10:30:38.783232","MEAN_MOTION":1.0027122,"ECCENTRICITY":2.436e-5,"INCLINATION":0.0337,"RA_OF_ASC_NODE":21.0877,"ARG_OF_PERICENTER":73.0999,"MEAN_ANOMALY":109.7578,"EPHEMERIS_TYPE":0,"CLASSIFICATION_TYPE":"U","NORAD_CAT_ID":40425,"ELEMENT_SET_NO":999,"REV_AT_EPOCH":4033,"BSTAR":0,"MEAN_MOTION_DOT":-4.0e-7,"MEAN_MOTION_DDOT":0},{"OBJECT_NAME":"EUTELSAT 8 WEST B","OBJECT_ID":"2015-039B","EPOCH":"2026-03-03T19:10:23.968992","MEAN_MOTION":1.00271622,"ECCENTRICITY":0.0003806,"INCLINATION":0.0665,"RA_OF_ASC_NODE":355.6192,"ARG_OF_PERICENTER":347.7132,"MEAN_ANOMALY":97.8181,"EPHEMERIS_TYPE":0,"CLASSIFICATION_TYPE":"U","NORAD_CAT_ID":40875,"ELEMENT_SET_NO":999,"REV_AT_EPOCH":3860,"BSTAR":0,"MEAN_MOTION_DOT":-8.0e-7,"MEAN_MOTION_DDOT":0}]
