EUTELSAT 139 WEST A     
1 28187U 04008A   26062.79282183 -.00000198  00000+0  00000+0 0  9991
2 28187   5.5616  73.2730 0001093  39.9060 295.1791  1.00833401 80296
EUTELSAT 174A           
1 28924U 05052A   26062.76352834 -.00000003  00000+0  00000+0 0  9993
2 28924   3.9517  77.8364 0006272 267.8762 264.6470  1.00273531 51278
EUTELSAT 33F            
1 29270U 06032A   26062.59305409  .00000142  00000+0  00000+0 0  9997
2 29270   1.3890  83.4858 0003569 263.9840  60.4943  1.00275571 46244
EUTELSAT HOTBIRD 13C    
1 33459U 08065A   26062.79048181 -.00000295  00000+0  00000+0 0  9992
2 33459   2.6797  80.4550 0003844 274.0557  41.2793  1.00269185 46286
EUTELSAT 36B            
1 36101U 09065A   26062.66784781  .00000098  00000+0  00000+0 0  9999
2 36101   0.2251  77.5321 0005885 266.5368 108.2480  1.00271356 59653
EUTELSAT KA-SAT 9A      
1 37258U 10069A   26062.65961444  .00000048  00000+0  00000+0 0  9996
2 37258   0.0566 356.6489 0002672 142.8249 268.4020  1.00273871 42942
EUTELSAT 7 WEST A       
1 37816U 11051A   26062.79897520 -.00000074  00000+0  00000+0 0  9996
2 37816   0.0686   6.9958 0001293 236.9507 197.9126  1.00271744 52829
EUTELSAT 16A            
1 37836U 11057A   26062.80356854  .00000090  00000+0  00000+0 0  9993
2 37836   0.0590 350.7218 0005467 353.6220 122.4842  1.00271354  6284
EUTELSAT 21B            
1 38992U 12062B   26062.59080074  .00000115  00000+0  00000+0 0  9996
2 38992   0.0680 355.9729 0002849 342.7889  56.8553  1.00271226 48769
EUTELSAT 70B            
1 39020U 12069A   26062.76755189 -.00000057  00000+0  00000+0 0  9997
2 39020   0.0665 337.4352 0001993 340.6778 190.2296  1.00273436 48453
EUTELSAT 117 WEST A     
1 39122U 13012A   26062.63465431 -.00000027  00000+0  00000+0 0  9990
2 39122   0.0553 291.4978 0003068  58.3171 283.2500  1.00272977 47370
EUTELSAT 7B             
1 39163U 13022A   26062.80183520  .00000034  00000+0  00000+0 0  9998
2 39163   0.0689 349.6146 0006313   3.3419 104.2348  1.00272090 46893
EXPRESS-AT1             
1 39612U 14010A   26062.17391823  .00000061  00000+0  00000+0 0  9992
2 39612   0.0182 234.3603 0000462 182.8711 222.3054  1.00286556 43755
EXPRESS-AT2             
1 39613U 14010B   26062.82815645  .00000000  00000+0  00000+0 0  9991
2 39613   0.0217 159.8822 0001171 109.6650 330.0401  1.00270363 43444
EUTELSAT 3B             
1 39773U 14030A   26062.80105520  .00000006  00000+0  00000+0 0  9998
2 39773   0.0656 335.0159 0001148 286.9001 191.1148  1.00273864 43018
EUTELSAT 115 WEST B     
1 40425U 15010B   26062.43794888 -.00000040  00000+0  00000+0 0  9992
2 40425   0.0337  21.0877 0000243  73.0999 109.7578  1.00271220 40333
EUTELSAT 8 WEST B       
1 40875U 15039B   26062.79888853 -.00000080  00000+0  00000+0 0  9991
2 40875   0.0665 355.6192 0003806 347.7132  97.8181  1.00271622 38600
